NORAD_CAT_ID,OBJECT_NAME,OBJECT_TYPE,EPOCH,MEAN_MOTION,ECCENTRICITY,INCLINATION,RA_OF_ASC_NODE,ARG_OF_PERICENTER,MEAN_ANOMALY,BSTAR,MEAN_MOTION_DOT,MEAN_MOTION_DDOT,TLE_LINE0,TLE_LINE1,TLE_LINE2,SEMIMAJOR_AXIS,PERIOD,APOGEE,PERIGEE,DECAYED
53293.0,STARLINK-4148,PAYLOAD,2024-02-18 02:52:00,15.08845024,0.0001339,53.2178,303.5494,97.3307,262.7837,6.8606e-05,8.04e-06,0.0,0 STARLINK-4148,1 53293U 22086BD  24049.11945422  .00000804  00000-0  68606-4 0  9999,2 53293  53.2178 303.5494 0001339  97.3307 262.7837 15.08845024 87853,6917.865,95.437,540.656,538.804,0.0
53293.0,STARLINK-4148,PAYLOAD,2024-02-18 20:21:15,15.08840108,0.0001376,53.2166,300.2776,98.5365,261.5783,4.8555e-05,4.85e-06,0.0,0 STARLINK-4148,1 53293U 22086BD  24049.84809846  .00000485  00000-0  48555-4 0  9994,2 53293  53.2166 300.2776 0001376  98.5365 261.5783 15.08840108 87962,6917.88,95.438,540.697,538.793,0.0
53293.0,STARLINK-4148,PAYLOAD,2024-02-18 23:32:01,15.0884142,0.0001438,53.2181,299.6891,84.1662,275.9494,8.1911e-05,1.016e-05,0.0,0 STARLINK-4148,1 53293U 22086BD  24049.98057838  .00001016  00000-0  81911-4 0  9999,2 53293  53.2181 299.6891 0001438  84.1662 275.9494 15.08841420 88145,6917.876,95.437,540.736,538.746,0.0
53293.0,STARLINK-4148,PAYLOAD,2024-02-19 02:42:47,15.08851207,0.0001301,53.2168,299.0902,91.7204,268.3937,4.891e-06,-2.1e-06,0.0,0 STARLINK-4148,1 53293U 22086BD  24050.11305305 -.00000210  00000-0  48910-5 0  9990,2 53293  53.2168 299.0902 0001301  91.7204 268.3937 15.08851207 88009,6917.846,95.437,540.611,538.811,0.0
53293.0,STARLINK-4148,PAYLOAD,2024-02-19 09:04:20,15.08840156,0.0001308,53.2161,297.8986,74.4448,285.6689,6.3077e-06,-1.88e-06,0.0,0 STARLINK-4148,1 53293U 22086BD  24050.37802003 -.00000188  00000-0  63077-5 0  9990,2 53293  53.2161 297.8986 0001308  74.4448 285.6689 15.08840156 88046,6917.88,95.438,540.65,538.84,0.0
53293.0,STARLINK-4148,PAYLOAD,2024-02-19 20:12:03,15.08835287,0.0001474,53.2173,295.819,90.8533,269.2628,-1.7611e-06,-3.16e-06,0.0,0 STARLINK-4148,1 53293U 22086BD  24050.84170629 -.00000316  00000-0 -17611-5 0  9991,2 53293  53.2173 295.8190 0001474  90.8533 269.2628 15.08835287 88113,6917.895,95.438,540.779,538.74,0.0
53293.0,STARLINK-4148,PAYLOAD,2024-02-19 23:22:49,15.08835537,0.0001354,53.2171,295.227,99.1116,261.0029,4.6497e-05,4.52e-06,0.0,0 STARLINK-4148,1 53293U 22086BD  24050.97418450  .00000452  00000-0  46497-4 0  9994,2 53293  53.2171 295.2270 0001354  99.1116 261.0029 15.08835537 88292,6917.894,95.438,540.696,538.822,0.0
53293.0,STARLINK-4148,PAYLOAD,2024-02-20 08:55:08,15.0884114,0.0001354,53.217,293.4426,97.4311,262.6835,-3.9032e-06,-3.5e-06,0.0,0 STARLINK-4148,1 53293U 22086BD  24051.37162243 -.00000350  00000-0 -39032-5 0  9992,2 53293  53.2170 293.4426 0001354  97.4311 262.6835 15.08841140 88358,6917.877,95.437,540.679,538.805,0.0
53293.0,STARLINK-4148,PAYLOAD,2024-02-20 23:13:36,15.088399,0.000143,53.2173,290.7665,93.9452,266.1704,7.75e-05,9.46e-06,0.0,0 STARLINK-4148,1 53293U 22086BD  24051.96778504  .00000946  00000-0  77500-4 0  9990,2 53293  53.2173 290.7665 0001430  93.9452 266.1704 15.08839900 88443,6917.881,95.438,540.735,538.756,0.0
53293.0,STARLINK-4148,PAYLOAD,2024-02-21 08:45:55,15.08844984,0.0001416,53.2172,288.9806,87.4127,272.7027,6.7169e-05,7.81e-06,0.0,0 STARLINK-4148,1 53293U 22086BD  24052.36522237  .00000781  00000-0  67169-4 0  9992,2 53293  53.2172 288.9806 0001416  87.4127 272.7027 15.08844984 88505,6917.865,95.437,540.71,538.751,0.0
53293.0,STARLINK-4148,PAYLOAD,2024-02-21 19:53:37,15.08837303,0.0001438,53.2174,286.8991,91.0692,269.0465,0.00014945,2.091e-05,0.0,0 STARLINK-4148,1 53293U 22086BD  24052.82890670  .00002091  00000-0  14945-3 0  9991,2 53293  53.2174 286.8991 0001438  91.0692 269.0465 15.08837303 88413,6917.889,95.438,540.748,538.759,0.0
53293.0,STARLINK-4148,PAYLOAD,2024-02-21 21:29:00,15.08840484,0.0001593,53.2185,286.6,90.7435,269.374,0.00013325,1.833e-05,0.0,0 STARLINK-4148,1 53293U 22086BD  24052.89514547  .00001833  00000-0  13325-3 0  9998,2 53293  53.2185 286.6000 0001593  90.7435 269.3740 15.08840484 88588,6917.879,95.438,540.846,538.642,0.0
53293.0,STARLINK-4148,PAYLOAD,2024-02-22 11:47:28,15.08839449,0.0001321,53.217,283.9245,93.3579,266.7564,0.00013423,1.849e-05,0.0,0 STARLINK-4148,1 53293U 22086BD  24053.49130498  .00001849  00000-0  13423-3 0  9990,2 53293  53.2170 283.9245 0001321  93.3579 266.7564 15.08839449 88674,6917.882,95.438,540.661,538.833,0.0
53293.0,STARLINK-4148,PAYLOAD,2024-02-22 21:19:47,15.08849224,0.0001376,53.2168,282.14,95.4723,264.6426,8.5734e-05,1.077e-05,0.0,0 STARLINK-4148,1 53293U 22086BD  24053.88873924  .00001077  00000-0  85734-4 0  9999,2 53293  53.2168 282.1400 0001376  95.4723 264.6426 15.08849224 88732,6917.852,95.437,540.669,538.765,0.0
53293.0,STARLINK-4148,PAYLOAD,2024-02-22 22:55:10,15.08849621,0.0001394,53.2169,281.8434,93.9741,266.141,9.3081e-05,1.194e-05,0.0,0 STARLINK-4148,1 53293U 22086BD  24053.95497868  .00001194  00000-0  93081-4 0  9990,2 53293  53.2169 281.8434 0001394  93.9741 266.1410 15.08849621 88583,6917.851,95.437,540.68,538.752,0.0
53293.0,STARLINK-4148,PAYLOAD,2024-02-23 08:27:29,15.08843307,0.0001476,53.2167,280.0579,90.7072,269.4089,3.4171e-05,2.56e-06,0.0,0 STARLINK-4148,1 53293U 22086BD  24054.35242296  .00000256  00000-0  34171-4 0  9991,2 53293  53.2167 280.0579 0001476  90.7072 269.4089 15.08843307 88645,6917.87,95.437,540.756,538.714,0.0
53293.0,STARLINK-4148,PAYLOAD,2024-02-23 21:10:34,15.08844541,0.0001354,53.2161,277.6784,94.5611,265.5536,1.8902e-05,1.3e-07,0.0,0 STARLINK-4148,1 53293U 22086BD  24054.88234143  .00000013  00000-0  18902-4 0  9996,2 53293  53.2161 277.6784 0001354  94.5611 265.5536 15.08844541 88886,6917.867,95.437,540.668,538.795,0.0
53293.0,STARLINK-4148,PAYLOAD,2024-02-24 08:18:16,15.08844654,0.0001368,53.2164,275.5963,93.7093,266.4056,-2.2558e-06,-3.24e-06,0.0,0 STARLINK-4148,1 53293U 22086BD  24055.34602087 -.00000324  00000-0 -22558-5 0  9994,2 53293  53.2164 275.5963 0001368  93.7093 266.4056 15.08844654 88955,6917.866,95.437,540.678,538.785,0.0
53293.0,STARLINK-4148,PAYLOAD,2024-02-24 21:01:21,15.08839774,0.0001405,53.2162,273.2179,97.0879,263.0273,4.385e-05,4.1e-06,0.0,0 STARLINK-4148,1 53293U 22086BD  24055.87594377  .00000410  00000-0  43850-4 0  9995,2 53293  53.2162 273.2179 0001405  97.0879 263.0273 15.08839774 88870,6917.881,95.438,540.718,538.774,0.0
53293.0,STARLINK-4148,PAYLOAD,2024-02-25 14:30:35,15.08841911,0.0001381,53.2155,269.947,94.7879,265.3271,0.00011385,1.525e-05,0.0,0 STARLINK-4148,1 53293U 22086BD  24056.60457980  .00001525  00000-0  11385-3 0  9990,2 53293  53.2155 269.9470 0001381  94.7879 265.3271 15.08841911 89145,6917.875,95.437,540.695,538.784,0.0
53293.0,STARLINK-4148,PAYLOAD,2024-02-25 20:52:07,15.08847664,0.0001365,53.2154,268.7577,93.9187,266.1961,0.00016241,2.298e-05,0.0,0 STARLINK-4148,1 53293U 22086BD  24056.86953521  .00002298  00000-0  16241-3 0  9994,2 53293  53.2154 268.7577 0001365  93.9187 266.1961 15.08847664 89027,6917.857,95.437,540.666,538.778,0.0
53293.0,STARLINK-4148,PAYLOAD,2024-02-26 00:02:53,15.0885063,0.0001344,53.2158,268.1627,93.1548,266.9598,0.00015021,2.104e-05,0.0,0 STARLINK-4148,1 53293U 22086BD  24057.00201351  .00002104  00000-0  15021-3 0  9999,2 53293  53.2158 268.1627 0001344  93.1548 266.9598 15.08850630 89202,6917.848,95.437,540.643,538.783,0.0
53293.0,STARLINK-4148,PAYLOAD,2024-02-26 19:07:32,15.08841866,0.0001932,53.2158,264.5906,96.8892,263.232,-3.3369e-06,-3.41e-06,0.0,0 STARLINK-4148,1 53293U 22086BD  24057.79690574 -.00000341  00000-0 -33369-5 0  9994,2 53293  53.2158 264.5906 0001932  96.8892 263.2320 15.08841866 89166,6917.875,95.437,541.076,538.403,0.0
53293.0,STARLINK-4148,PAYLOAD,2024-02-26 20:42:55,15.08837749,0.000121,53.2159,264.2929,90.3802,269.7329,5.0242e-05,5.12e-06,0.0,0 STARLINK-4148,1 53293U 22086BD  24057.86314569  .00000512  00000-0  50242-4 0  9995,2 53293  53.2159 264.2929 0001210  90.3802 269.7329 15.08837749 89332,6917.887,95.438,540.589,538.915,0.0
53293.0,STARLINK-4148,PAYLOAD,2024-02-27 06:15:14,15.08837389,0.0001316,53.216,262.5134,84.1507,275.9636,4.5566e-05,4.37e-06,0.0,0 STARLINK-4148,1 53293U 22086BD  24058.26058740  .00000437  00000-0  45566-4 0  9995,2 53293  53.2160 262.5134 0001316  84.1507 275.9636 15.08837389 89399,6917.888,95.438,540.664,538.843,0.0
53293.0,STARLINK-4148,PAYLOAD,2024-02-27 20:33:43,15.08828947,0.000138,53.2176,259.8389,92.8381,267.2769,-8.436e-05,-1.63e-05,0.0,0 STARLINK-4148,1 53293U 22086BD  24058.85675879 -.00001630  00000-0 -84360-4 0  9991,2 53293  53.2176 259.8389 0001380  92.8381 267.2769 15.08828947 89328,6917.914,95.438,540.734,538.825,0.0
53293.0,STARLINK-4148,PAYLOAD,2024-02-27 22:09:07,15.08827968,0.0001348,53.2172,259.5417,91.3332,268.7815,-9.3776e-05,-1.78e-05,0.0,0 STARLINK-4148,1 53293U 22086BD  24058.92300009 -.00001780  00000-0 -93776-4 0  9996,2 53293  53.2172 259.5417 0001348  91.3332 268.7815 15.08827968 89495,6917.917,95.438,540.715,538.85,0.0
53293.0,STARLINK-4148,PAYLOAD,2024-02-28 06:06:02,15.08829761,0.0001329,53.2167,258.0539,88.8398,271.2746,-8.6095e-05,-1.657e-05,0.0,0 STARLINK-4148,1 53293U 22086BD  24059.25420072 -.00001657  00000-0 -86095-4 0  9995,2 53293  53.2167 258.0539 0001329  88.8398 271.2746 15.08829761 89541,6917.912,95.438,540.696,538.857,0.0
53293.0,STARLINK-4148,PAYLOAD,2024-02-28 20:24:31,15.08830476,0.000138,53.2162,255.3771,85.542,274.573,5.2933e-05,5.54e-06,0.0,0 STARLINK-4148,1 53293U 22086BD  24059.85036162  .00000554  00000-0  52933-4 0  9991,2 53293  53.2162 255.3771 0001380  85.5420 274.5730 15.08830476 89635,6917.91,95.438,540.729,538.82,0.0
53293.0,STARLINK-4148,PAYLOAD,2024-02-29 12:18:22,15.08832865,0.0001341,53.2156,252.403,86.51,273.6046,0.00016583,2.352e-05,0.0,0 STARLINK-4148,1 53293U 22086BD  24060.51276048  .00002352  00000-0  16583-3 0  9993,2 53293  53.2156 252.4030 0001341  86.5100 273.6046 15.08832865 89574,6917.902,95.438,540.695,538.84,0.0
